{"type": "FeatureCollection", "features": [ {"type": "Feature", "properties": {"norad_id": 64902, "name": "CO3D 2", "group": "resource", "lat": 49.103415785901326, "lon": 64.92387451044563, "alt_km": 500.22019793623167, "timestamp": "2025-12-23T11:34:47.839946+00:00", "meta": {"OBJECT_NAME": "CO3D 2", "OBJECT_ID": "2025-156D", "EPOCH": "2025-12-22T22:43:27.541056", "MEAN_MOTION": 15.2019735, "ECCENTRICITY": 8.768e-05, "INCLINATION": 97.4342, "RA_OF_ASC_NODE": 73.0668, "ARG_OF_PERICENTER": 68.1646, "MEAN_ANOMALY": 291.9682, "EPHEMERIS_TYPE": 0, "CLASSIFICATION_TYPE": "U", "NORAD_CAT_ID": 64902, "ELEMENT_SET_NO": 999, "REV_AT_EPOCH": 2275, "BSTAR": 0.00078373985, "MEAN_MOTION_DOT": 0.00016935, "MEAN_MOTION_DDOT": 0}, "tle": {"line1": "1 64902U 25156D   25356.94684654  .00016935  00000+0  78374-3 0  9992", "line2": "2 64902  97.4342  73.0668 0000876  68.1646 291.9682 15.20197350 22750"}}, "geometry": {"type": "Point", "coordinates": [64.92387451044563, 49.103415785901326]}}, {"type": "Feature", "properties": {"norad_id": 64903, "name": "CO3D 1", "group": "resource", "lat": 48.2860676610289, "lon": 65.17147750348961, "alt_km": 500.37352035925596, "timestamp": "2025-12-23T11:34:47.839955+00:00", "meta": {"OBJECT_NAME": "CO3D 1", "OBJECT_ID": "2025-156E", "EPOCH": "2025-12-22T22:43:40.696320", "MEAN_MOTION": 15.20203625, "ECCENTRICITY": 8.93e-05, "INCLINATION": 97.4339, "RA_OF_ASC_NODE": 73.0665, "ARG_OF_PERICENTER": 76.0215, "MEAN_ANOMALY": 284.112, "EPHEMERIS_TYPE": 0, "CLASSIFICATION_TYPE": "U", "NORAD_CAT_ID": 64903, "ELEMENT_SET_NO": 999, "REV_AT_EPOCH": 2275, "BSTAR": 0.0003017122, "MEAN_MOTION_DOT": 6.47e-05, "MEAN_MOTION_DDOT": 0}, "tle": {"line1": "1 64903U 25156E   25356.94699880  .00006470  00000+0  30171-3 0  9996", "line2": "2 64903  97.4339  73.0665 0000893  76.0215 284.1120 15.20203625 22757"}}, "geometry": {"type": "Point", "coordinates": [65.17147750348961, 48.2860676610289]}}, {"type": "Feature", "properties": {"norad_id": 66514, "name": "SENTINEL-6B", "group": "resource", "lat": -43.388480258502625, "lon": 115.26687267585162, "alt_km": 1338.8801257593514, "timestamp": "2025-12-23T11:34:47.839964+00:00", "meta": {"OBJECT_NAME": "SENTINEL-6B", "OBJECT_ID": "2025-264A", "EPOCH": "2025-12-23T02:27:52.422912", "MEAN_MOTION": 12.8092954, "ECCENTRICITY": 0.0007889, "INCLINATION": 66.0396, "RA_OF_ASC_NODE": 140.9099, "ARG_OF_PERICENTER": 269.9741, "MEAN_ANOMALY": 90.037, "EPHEMERIS_TYPE": 0, "CLASSIFICATION_TYPE": "U", "NORAD_CAT_ID": 66514, "ELEMENT_SET_NO": 999, "REV_AT_EPOCH": 461, "BSTAR": -1.0381e-05, "MEAN_MOTION_DOT": -6.3e-07, "MEAN_MOTION_DDOT": 0}, "tle": {"line1": "1 66514U 25264A   25357.10269008 -.00000063  00000+0 -10381-4 0  9996", "line2": "2 66514  66.0396 140.9099 0007889 269.9741  90.0370 12.80929540  4616"}}, "geometry": {"type": "Point", "coordinates": [115.26687267585162, -43.388480258502625]}}]}